STARLINK-3512           
1 51743C 22016AF  22349.14631944  .00004531  00000-0  28410-3 0  3493
2 51743  53.2144 208.7796 0002913  30.6198  99.0675 15.08831758    15
STARLINK-3452           
1 51744C 22016AG  22349.14562500  .00004578  00000-0  28695-3 0  3491
2 51744  53.2144 218.7971 0002715  24.4776 281.2419 15.08846155    13
STARLINK-3449           
1 51745C 22016AH  22349.14284722  .00016392  00000-0  10275-2 0  3490
2 51745  53.2141 218.8099 0002985  26.4366 189.3517 15.08833058    14
STARLINK-3502           
1 51746C 22016AJ  22349.13173611  .00007704  00000-0  48310-3 0  3493
2 51746  53.2160 208.8514 0002996  25.1627  45.2542 15.08827166    16
STARLINK-3446           
1 51747C 22016AK  22349.13034722  .00021265  00000-0  13336-2 0  3490
2 51747  53.2134 218.8688 0002788  25.7179 182.1792 15.08811040    10
STARLINK-3501           
1 51748C 22016AL  22349.14562500  .00017955  00000-0  11254-2 0  3490
2 51748  53.2152 208.7993 0002618  27.6793 158.2235 15.08833853    15
STARLINK-3451           
1 51749C 22016AM  22349.13520833  .00004832  00000-0  30302-3 0  3499
2 51749  53.2165 218.8321 0002812  34.6149  34.4724 15.08830503    13
STARLINK-3505           
1 51750C 22016AN  22349.14354167  .00017828  00000-0  11181-2 0  3499
2 51750  53.2152 208.8073 0002881  31.3490 183.2460 15.08813941    10
STARLINK-3506           
1 51751C 22016AP  22349.14701389  .00017085  00000-0  10709-2 0  3492
2 51751  53.2143 208.7933 0002450  36.2369 137.2273 15.08833196    11
STARLINK-3511           
1 51752C 22016AQ  22349.14076389  .00017792  00000-0  11156-2 0  3490
2 51752  53.2153 208.8216 0002994  30.6360 188.8655 15.08820812    17
STARLINK-3507           
1 51753C 22016AR  22349.14354167  .00017031  00000-0  10678-2 0  3498
2 51753  53.2145 208.8082 0002922  27.1157 167.4804 15.08826332    18
STARLINK-3457           
1 51754C 22016AS  22349.14215278  .00016198  00000-0  10154-2 0  3490
2 51754  53.2155 208.8111 0003359  29.7567 232.0629 15.08832120    17
STARLINK-3460           
1 51755C 22016AT  22349.14354167  .00016549  00000-0  10379-2 0  3491
2 51755  53.2142 208.8060 0002744  24.0516 230.5790 15.08813458    11
STARLINK-3513           
1 51756C 22016AU  22349.14701389 -.00001599  00000-0 -10029-3 0  3498
2 51756  53.2135 208.7955 0002581  29.4453  44.0303 15.08835468    17
STARLINK-3459           
1 51757C 22016AV  22349.10465278  .00002970  00000-0  18616-3 0  3491
2 51757  53.2152 208.9894 0002560  38.0127 185.1506 15.08851168    19
STARLINK-3458           
1 51758C 22016AW  22349.14076389 -.00008131  00000-0 -50979-3 0  3492
2 51758  53.2146 208.8217 0002682  33.1886  41.0862 15.08852419    19
STARLINK-3456           
1 51759C 22016AX  22349.14423611 -.00005039  00000-0 -31595-3 0  3494
2 51759  53.2152 208.8095 0002568  27.8076  70.5557 15.08847889    18
STARLINK-3622           
1 51768C 22017A   22349.14354167  .00001567  00000-0  98286-4 0  3495
2 51768  53.2152 238.8006 0002631  31.9693 257.6402 15.08834619    19
STARLINK-3621           
1 51769C 22017B   22349.14284722  .00001753  00000-0  10991-3 0  3498
2 51769  53.2159 238.8129 0002605  32.1560 293.6551 15.08845857    11
STARLINK-3612           
1 51770C 22017C   22349.14284722  .00000227  00000-0  14263-4 0  3492
2 51770  53.2150 238.7999 0002345  29.1933 276.5919 15.08842004    18
STARLINK-3614           
1 51771C 22017D   22349.13937500  .00025567  00000-0  16030-2 0  3497
2 51771  53.2158 238.8258 0002606  31.8282 289.9062 15.08817044    16
STARLINK-3623           
1 51772C 22017E   22349.14284722  .00010372  00000-0  65029-3 0  3491
2 51772  53.2158 238.8054 0002076  37.7993 348.0167 15.08831737    14
STARLINK-3624           
1 51773C 22017F   22349.14284722  .00001567  00000-0  98250-4 0  3491
2 51773  53.2149 238.7963 0002805  26.3660 319.4300 15.08842713    15
STARLINK-3629           
1 51774C 22017G   22349.14354167  .00027841  00000-0  17454-2 0  3491
2 51774  53.2158 238.7968 0002915  20.7063  48.8780 15.08817477    12
STARLINK-3620           
1 51775C 22017H   22349.14284722  .00025686  00000-0  16104-2 0  3497
2 51775  53.2143 238.8097 0003062  26.4472 339.3684 15.08816021    17
STARLINK-3608           
1 51776C 22017J   22349.14284722  .00012424  00000-0  77882-3 0  3495
2 51776  53.2167 238.8120 0002471  27.5938  58.2122 15.08837141    13
STARLINK-3625           
1 51777C 22017K   22349.14215278  .00018286  00000-0  11464-2 0  3491
2 51777  53.2166 238.8177 0002781  26.3891  15.6565 15.08826764    11
STARLINK-3615           
1 51778C 22017L   22349.14631944 -.00000246  00000-0 -15419-4 0  3499
2 51778  53.2151 228.7811 0002649  32.6317 321.8390 15.08850770    17
STARLINK-3611           
1 51779C 22017M   22349.14284722  .00091408  00000-0  57378-2 0  3494
2 51779  53.2168 238.8008 0002728  19.9102  86.0389 15.08707481    12
STARLINK-3617           
1 51780C 22017N   22349.14145833  .00005957  00000-0  37345-3 0  3492
2 51780  53.2147 238.8211 0002260  31.1351 121.9659 15.08838216    10
STARLINK-3580           
1 51781C 22017P   22349.14076389  .00000735  00000-0  46102-4 0  3493
2 51781  53.2150 238.8204 0002903  27.8432  86.6163 15.08845107    17
STARLINK-3616           
1 51782C 22017Q   22349.14701389  .00018641  00000-0  11686-2 0  3491
2 51782  53.2150 248.7710 0002843  24.3118  29.1504 15.08826365    12
STARLINK-3628           
1 51783C 22017R   22349.14562500  .00006305  00000-0  39528-3 0  3492
2 51783  53.2151 238.7968 0002664  25.3886 135.5332 15.08835712    19
STARLINK-3632           
1 51784C 22017S   22349.14701389  .00014709  00000-0  92221-3 0  3499
2 51784  53.2158 248.7849 0002442  32.1384  41.3286 15.08828029    14
STARLINK-3646           
1 51785C 22017T   22349.14562500  .00017928  00000-0  11239-2 0  3495
2 51785  53.2147 238.8053 0002761  28.3984 152.4977 15.08829252    17
STARLINK-3638           
1 51786C 22017U   22349.14006944  .00009722  00000-0  60945-3 0  3493
2 51786  53.2149 248.8107 0002636  30.1762  45.5504 15.08836932    18
STARLINK-3619           
1 51787C 22017V   22349.14562500  .00002043  00000-0  12807-3 0  3492
2 51787  53.2164 248.7936 0002802  23.7676   2.1588 15.08839007    19
STARLINK-3641           
1 51788C 22017W   22349.14701389 -.00000179  00000-0 -11194-4 0  3492
2 51788  53.2144 248.7955 0002415  27.7205 145.7388 15.08838973    14
STARLINK-3639           
1 51789C 22017X   22349.14284722 -.00000167  00000-0 -10468-4 0  3490
2 51789  53.2154 248.8053 0002680  24.9249  45.8619 15.08853853    18
STARLINK-3631           
1 51790C 22017Y   22349.14145833  .00003475  00000-0  21791-3 0  3494
2 51790  53.2160 248.8063 0002738  28.5455 134.7070 15.08831859    12
STARLINK-3602           
1 51791C 22017Z   22349.13868056  .00005441  00000-0  34108-3 0  3494
2 51791  53.2154 248.8234 0002753  28.1327  60.0623 15.08844057    16
STARLINK-3626           
1 51792C 22017AA  22349.14562500  .00018570  00000-0  11642-2 0  3495
2 51792  53.2148 248.8014 0001901  46.3451 179.5992 15.08827705    16
STARLINK-3633           
1 51793C 22017AB  22349.14631944  .00011695  00000-0  73313-3 0  3490
2 51793  53.2145 248.8012 0002841  23.2881 126.4005 15.08836424    11
STARLINK-3573           
1 51794C 22017AC  22349.14354167  .00026956  00000-0  16908-2 0  3492
2 51794  53.2145 248.8038 0002722  23.1717 231.4040 15.08798929    18
STARLINK-3586           
1 51795C 22017AD  22349.14354167  .00018805  00000-0  11790-2 0  3491
2 51795  53.2141 248.8038 0002244  29.9721 204.6536 15.08825674    13
STARLINK-3630           
1 51796C 22017AE  22349.14423611  .00004719  00000-0  29587-3 0  3496
2 51796  53.2158 248.7958 0002377  34.0560 284.2920 15.08839799    11
STARLINK-3627           
1 51797C 22017AF  22349.14493056  .00034510  00000-0  21369-2 0  3498
2 51797  53.2142 248.7926 0002222  55.4030 151.4944 15.09262560    16
STARLINK-3634           
1 51798C 22017AG  22349.14631944 -.00006837  00000-0 -42860-3 0  3492
2 51798  53.2168 248.7807 0002659  26.4551 323.2180 15.08856031    15
STARLINK-3637           
1 51799C 22017AH  22349.14354167  .00028686  00000-0  17985-2 0  3495
2 51799  53.2157 248.8145 0002865  19.0400 255.5618 15.08813150    18
STARLINK-3600           
1 51800C 22017AJ  22349.14493056 -.00000105  00000-0 -65965-5 0  3491
2 51800  53.2164 248.7972 0003229  16.1686   0.8071 15.08840430    10
STARLINK-3592           
1 51801C 22017AK  22349.14701389 -.00000709  00000-0 -44450-4 0  3498
2 51801  53.2158 248.7770 0002380  26.2941 287.2147 15.08846960    12
STARLINK-3557           
1 51802C 22017AL  22349.14284722  .00018451  00000-0  11567-2 0  3498
2 51802  53.2141 248.8112 0002608  34.2394 151.3485 15.08828005    16
STARLINK-3544           
1 51803C 22017AM  22349.14215278  .00005782  00000-0  36247-3 0  3495
2 51803  53.2157 248.8021 0002783  23.2861 323.7458 15.08841676    18
STARLINK-3601           
1 51804C 22017AN  22349.14284722 -.00010135  00000-0 -63547-3 0  3499
2 51804  53.2154 228.8089 0002491  31.2956 249.5368 15.08851767    15
STARLINK-3605           
1 51805C 22017AP  22349.14284722  .00002768  00000-0  17358-3 0  3490
2 51805  53.2153 228.7973 0002793  25.4515 275.3649 15.08836158    13
STARLINK-3581           
1 51806C 22017AQ  22349.13868056  .00026623  00000-0  16692-2 0  3493
2 51806  53.2134 238.8305 0002874  25.9149 177.2877 15.08813652    19
STARLINK-3606           
1 51807C 22017AR  22349.14423611  .00001154  00000-0  72375-4 0  3493
2 51807  53.2151 238.8094 0002821  31.0917 162.3090 15.08838634    16
STARLINK-3609           
1 51808C 22017AS  22349.14354167  .00014268  00000-0  89426-3 0  3497
2 51808  53.2135 238.8028 0002604  33.4007 236.1584 15.08841091    10
STARLINK-3607           
1 51809C 22017AT  22349.14354167  .00006021  00000-0  37755-3 0  3494
2 51809  53.2144 238.8043 0002805  28.9902 180.6056 15.08833522    11
